NORAD_CAT_ID,OBJECT_NAME,OBJECT_TYPE,EPOCH,MEAN_MOTION,ECCENTRICITY,INCLINATION,RA_OF_ASC_NODE,ARG_OF_PERICENTER,MEAN_ANOMALY,BSTAR,MEAN_MOTION_DOT,MEAN_MOTION_DDOT,TLE_LINE0,TLE_LINE1,TLE_LINE2,SEMIMAJOR_AXIS,PERIOD,APOGEE,PERIGEE,DECAYED
49430.0,STARLINK-3138,PAYLOAD,2024-07-03 04:26:55,15.08849144,0.0001279,53.2156,108.0126,103.203,256.9105,4.1035e-05,3.65e-06,0.0,0 STARLINK-3138,1 49430U 21104Y   24185.18536850  .00000365  00000-0  41035-4 0  9995,2 49430  53.2156 108.0126 0001279 103.2030 256.9105 15.08849144146946,6917.852,95.437,540.602,538.833,0.0
49430.0,STARLINK-3138,PAYLOAD,2024-07-03 21:56:10,15.0883884,0.0001451,53.2137,104.7434,102.293,257.8225,0.00013082,1.795e-05,0.0,0 STARLINK-3138,1 49430U 21104Y   24185.91401500  .00001795  00000-0  13082-3 0  9997,2 49430  53.2137 104.7434 0001451 102.2930 257.8225 15.08838840145976,6917.884,95.438,540.753,538.745,0.0
49430.0,STARLINK-3138,PAYLOAD,2024-07-04 04:17:43,15.08830878,0.0001505,53.2168,103.5547,107.0262,253.0895,0.00031498,4.727e-05,0.0,0 STARLINK-3138,1 49430U 21104Y   24186.17897539  .00004727  00000-0  31498-3 0  9996,2 49430  53.2168 103.5547 0001505 107.0262 253.0895 15.08830878147092,6917.908,95.438,540.814,538.732,0.0
49430.0,STARLINK-3138,PAYLOAD,2024-07-04 21:46:57,15.08839806,0.0001549,53.2174,100.2814,108.9996,251.1164,2.1965e-05,6.2e-07,0.0,0 STARLINK-3138,1 49430U 21104Y   24186.90761552  .00000062  00000-0  21965-4 0  9999,2 49430  53.2174 100.2814 0001549 108.9996 251.1164 15.08839806146123,6917.881,95.438,540.818,538.674,0.0
49430.0,STARLINK-3138,PAYLOAD,2024-07-05 04:08:30,15.08842603,0.0001619,53.2175,99.0921,116.8668,243.249,2.8379e-05,1.64e-06,0.0,0 STARLINK-3138,1 49430U 21104Y   24187.17257314  .00000164  00000-0  28379-4 0  9994,2 49430  53.2175  99.0921 0001619 116.8668 243.2490 15.08842603146167,6917.872,95.437,540.857,538.617,0.0
49430.0,STARLINK-3138,PAYLOAD,2024-07-05 21:37:44,15.08844916,0.0001812,53.2176,95.8204,110.3867,249.732,-2.0849e-05,-6.2e-06,0.0,0 STARLINK-3138,1 49430U 21104Y   24187.90121365 -.00000620  00000-0 -20849-4 0  9994,2 49430  53.2176  95.8204 0001812 110.3867 249.7320 15.08844916146275,6917.865,95.437,540.984,538.477,0.0
49430.0,STARLINK-3138,PAYLOAD,2024-07-06 03:59:16,15.08848613,0.0001399,53.2166,94.6345,89.9428,270.1724,8.7066e-05,1.098e-05,0.0,0 STARLINK-3138,1 49430U 21104Y   24188.16616886  .00001098  00000-0  87066-4 0  9992,2 49430  53.2166  94.6345 0001399  89.9428 270.1724 15.08848613147399,6917.854,95.437,540.687,538.751,0.0
49430.0,STARLINK-3138,PAYLOAD,2024-07-06 10:20:50,15.08840973,0.00016,53.2173,93.4453,90.9457,269.1718,2.0037e-05,3.1e-07,0.0,0 STARLINK-3138,1 49430U 21104Y   24188.43113576  .00000031  00000-0  20037-4 0  9991,2 49430  53.2173  93.4453 0001600  90.9457 269.1718 15.08840973147430,6917.877,95.437,540.849,538.636,0.0
49430.0,STARLINK-3138,PAYLOAD,2024-07-06 18:17:46,15.08836357,0.0001773,53.2167,91.9603,94.8749,265.2446,-3.2989e-05,-8.13e-06,0.0,0 STARLINK-3138,1 49430U 21104Y   24188.76234218 -.00000813  00000-0 -32989-4 0  9993,2 49430  53.2167  91.9603 0001773  94.8749 265.2446 15.08836357147482,6917.892,95.438,540.983,538.53,0.0
49430.0,STARLINK-3138,PAYLOAD,2024-07-06 21:28:32,15.08833438,0.0001702,53.218,91.3682,109.2419,250.8757,-2.4064e-05,-6.71e-06,0.0,0 STARLINK-3138,1 49430U 21104Y   24188.89482527 -.00000671  00000-0 -24064-4 0  9992,2 49430  53.2180  91.3682 0001702 109.2419 250.8757 15.08833438146420,6917.9,95.438,540.943,538.588,0.0
49430.0,STARLINK-3138,PAYLOAD,2024-07-07 00:39:19,15.08834257,0.0001528,53.2178,90.7752,103.1298,256.9864,-1.4359e-05,-5.16e-06,0.0,0 STARLINK-3138,1 49430U 21104Y   24189.02730478 -.00000516  00000-0 -14359-4 0  9993,2 49430  53.2178  90.7752 0001528 103.1298 256.9864 15.08834257146440,6917.898,95.438,540.82,538.706,0.0
49430.0,STARLINK-3138,PAYLOAD,2024-07-07 22:54:42,15.08846027,0.0001497,53.218,86.6121,100.5722,259.5439,6.9747e-05,8.22e-06,0.0,0 STARLINK-3138,1 49430U 21104Y   24189.95465769  .00000822  00000-0  69747-4 0  9992,2 49430  53.2180  86.6121 0001497 100.5722 259.5439 15.08846027147665,6917.862,95.437,540.763,538.691,0.0
49430.0,STARLINK-3138,PAYLOAD,2024-07-08 10:02:24,15.08843717,0.0001696,53.2162,84.5257,77.1019,283.0162,3.521e-05,2.72e-06,0.0,0 STARLINK-3138,1 49430U 21104Y   24190.41833679  .00000272  00000-0  35210-4 0  9991,2 49430  53.2162  84.5257 0001696  77.1019 283.0162 15.08843717146657,6917.869,95.437,540.907,538.561,0.0
49430.0,STARLINK-3138,PAYLOAD,2024-07-08 21:10:06,15.08835478,0.0001863,53.2171,82.4458,82.7472,277.3732,9.7389e-05,1.262e-05,0.0,0 STARLINK-3138,1 49430U 21104Y   24190.88202251  .00001262  00000-0  97389-4 0  9993,2 49430  53.2171  82.4458 0001863  82.7472 277.3732 15.08835478147800,6917.894,95.438,541.048,538.47,0.0
49430.0,STARLINK-3138,PAYLOAD,2024-07-08 22:45:30,15.08835062,0.0001633,53.2187,82.1496,81.9906,278.1272,9.5421e-05,1.231e-05,0.0,0 STARLINK-3138,1 49430U 21104Y   24190.94826637  .00001231  00000-0  95421-4 0  9991,2 49430  53.2187  82.1496 0001633  81.9906 278.1272 15.08835062146732,6917.895,95.438,540.89,538.631,0.0
49430.0,STARLINK-3138,PAYLOAD,2024-07-09 09:53:12,15.08836561,0.0001321,53.217,80.068,85.6138,274.5005,8.2994e-05,1.033e-05,0.0,0 STARLINK-3138,1 49430U 21104Y   24191.41194575  .00001033  00000-0  82994-4 0  9994,2 49430  53.2170  80.0680 0001321  85.6138 274.5005 15.08836561146805,6917.891,95.438,540.67,538.842,0.0
49430.0,STARLINK-3138,PAYLOAD,2024-07-09 22:36:17,15.08839814,0.0001395,53.2168,77.6824,96.0399,264.0752,-5.1553e-05,-1.108e-05,0.0,0 STARLINK-3138,1 49430U 21104Y   24191.94186774 -.00001108  00000-0 -51553-4 0  9996,2 49430  53.2168  77.6824 0001395  96.0399 264.0752 15.08839814146885,6917.881,95.438,540.711,538.781,0.0
49430.0,STARLINK-3138,PAYLOAD,2024-07-10 01:47:03,15.08843101,0.0001409,53.2173,77.0869,94.247,265.8684,-1.7706e-05,-5.7e-06,0.0,0 STARLINK-3138,1 49430U 21104Y   24192.07434479 -.00000570  00000-0 -17706-4 0  9993,2 49430  53.2173  77.0869 0001409  94.2470 265.8684 15.08843101147989,6917.871,95.437,540.711,538.761,0.0
49430.0,STARLINK-3138,PAYLOAD,2024-07-10 09:43:59,15.08842684,0.0001415,53.2172,75.6025,92.9597,267.1557,-1.6878e-05,-5.57e-06,0.0,0 STARLINK-3138,1 49430U 21104Y   24192.40554508 -.00000557  00000-0 -16878-4 0  9990,2 49430  53.2172  75.6025 0001415  92.9597 267.1557 15.08842684146953,6917.872,95.437,540.716,538.758,0.0
49430.0,STARLINK-3138,PAYLOAD,2024-07-10 22:27:03,15.08846183,0.0001363,53.2171,73.2231,90.1156,269.9992,7.8677e-05,9.65e-06,0.0,0 STARLINK-3138,1 49430U 21104Y   24192.93546185  .00000965  00000-0  78677-4 0  9996,2 49430  53.2171  73.2231 0001363  90.1156 269.9992 15.08846183147039,6917.861,95.437,540.669,538.784,0.0
49430.0,STARLINK-3138,PAYLOAD,2024-07-12 01:28:36,15.08847213,0.0001287,53.2162,68.1698,94.688,265.426,0.00021042,3.063e-05,0.0,0 STARLINK-3138,1 49430U 21104Y   24194.06153799  .00003063  00000-0  21042-3 0  9992,2 49430  53.2162  68.1698 0001287  94.6880 265.4260 15.08847213148289,6917.858,95.437,540.614,538.833,0.0
49430.0,STARLINK-3138,PAYLOAD,2024-07-12 20:33:14,15.0884523,0.000162,53.2178,64.5963,109.1178,250.9989,4.169e-05,3.76e-06,0.0,0 STARLINK-3138,1 49430U 21104Y   24194.85642075  .00000376  00000-0  41690-4 0  9995,2 49430  53.2178  64.5963 0001620 109.1178 250.9989 15.08845230148402,6917.864,95.437,540.85,538.609,0.0
49430.0,STARLINK-3138,PAYLOAD,2024-07-12 22:08:37,15.08855913,0.0001198,53.216,64.3032,78.827,281.2857,0.00016306,2.309e-05,0.0,0 STARLINK-3138,1 49430U 21104Y   24194.92265258  .00002309  00000-0  16306-3 0  9990,2 49430  53.2160  64.3032 0001198  78.8270 281.2857 15.08855913147334,6917.832,95.437,540.526,538.868,0.0
49430.0,STARLINK-3138,PAYLOAD,2024-07-13 21:59:24,15.08835849,0.0001201,53.2172,59.8459,92.078,268.035,-0.00012399,-2.26e-05,0.0,0 STARLINK-3138,1 49430U 21104Y   24195.91625879 -.00002260  00000-0 -12399-3 0  9995,2 49430  53.2172  59.8459 0001201  92.0780 268.0350 15.08835849148561,6917.893,95.438,540.589,538.927,0.0
49430.0,STARLINK-3138,PAYLOAD,2024-07-14 07:31:43,15.08827425,0.0001119,53.2165,58.0603,94.5475,265.5645,-4.2276e-05,-9.6e-06,0.0,0 STARLINK-3138,1 49430U 21104Y   24196.31370295 -.00000960  00000-0 -42276-4 0  9992,2 49430  53.2165  58.0603 0001119  94.5475 265.5645 15.08827425147548,6917.919,95.438,540.558,539.01,0.0
49430.0,STARLINK-3138,PAYLOAD,2024-07-14 21:50:12,15.08829596,0.0001179,53.2177,55.3877,96.4728,263.6399,-4.8512e-05,-1.06e-05,0.0,0 STARLINK-3138,1 49430U 21104Y   24196.90986780 -.00001060  00000-0 -48512-4 0  9990,2 49430  53.2177  55.3877 0001179  96.4728 263.6399 15.08829596147638,6917.912,95.438,540.593,538.962,0.0
49430.0,STARLINK-3138,PAYLOAD,2024-07-15 07:22:31,15.08842419,0.0001178,53.2182,53.6032,93.5613,266.5514,-0.00018026,-3.156e-05,0.0,0 STARLINK-3138,1 49430U 21104Y   24197.30730339 -.00003156  00000-0 -18026-3 0  9996,2 49430  53.2182  53.6032 0001178  93.5613 266.5514 15.08842419148774,6917.873,95.437,540.553,538.923,0.0
49430.0,STARLINK-3138,PAYLOAD,2024-07-15 20:05:36,15.08822207,0.0001042,53.2177,51.2231,94.5814,265.5297,0.00015393,2.162e-05,0.0,0 STARLINK-3138,1 49430U 21104Y   24197.83722936  .00002162  00000-0  15393-3 0  9996,2 49430  53.2177  51.2231 0001042  94.5814 265.5297 15.08822207148856,6917.935,95.439,540.521,539.079,0.0
49430.0,STARLINK-3138,PAYLOAD,2024-07-15 21:40:59,15.08826558,0.0001061,53.2172,50.9256,95.273,264.8384,0.00018925,2.724e-05,0.0,0 STARLINK-3138,1 49430U 21104Y   24197.90346675  .00002724  00000-0  18925-3 0  9994,2 49430  53.2172  50.9256 0001061  95.2730 264.8384 15.08826558147783,6917.921,95.438,540.52,539.052,0.0
49430.0,STARLINK-3138,PAYLOAD,2024-07-15 23:16:22,15.08832986,0.0001197,53.2176,50.6295,99.9336,260.1791,0.00029556,4.418e-05,0.0,0 STARLINK-3138,1 49430U 21104Y   24197.96970577  .00004418  00000-0  29556-3 0  9998,2 49430  53.2176  50.6295 0001197  99.9336 260.1791 15.08832986148874,6917.902,95.438,540.595,538.939,0.0
